STARLINK-32753          
1 62481C 24254V   26191.21576389 -.00004336  00000+0 -15705-3 0  1910
2 62481  43.0000  44.1265 0001544 275.5185 132.0169 15.27579475    14
STARLINK-32699          
1 62482C 24254W   26191.17965278  .00016545  00000+0  59926-3 0  1911
2 62482  43.0016  47.8247 0001619 272.8193 284.4158 15.27569458    14
STARLINK-32713          
1 62487C 25003A   26191.23034722  .00042013  00000+0  15222-2 0  1916
2 62487  43.0013 316.9982 0001764 254.4895  39.1654 15.27547493    19
STARLINK-32732          
1 62488C 25003B   26191.21368056  .00041828  00000+0  15154-2 0  1912
2 62488  43.0033 316.6452 0001741 273.5156 112.2967 15.27549369    12
STARLINK-32328          
1 62489C 25003C   26191.23520833  .00038865  00000+0  14080-2 0  1912
2 62489  43.0021 317.1677 0001477 262.7163 332.7933 15.27550923    19
STARLINK-32332          
1 62490C 25003D   26191.22895833  .00039714  00000+0  14389-2 0  1914
2 62490  43.0017 317.0530 0001566 255.2964   9.4927 15.27546704    11
STARLINK-32717          
1 62491C 25003E   26191.22548611  .00043776  00000+0  15862-2 0  1914
2 62491  43.0006 316.8224 0001815 267.9184  83.8541 15.27542484    17
STARLINK-32757          
1 62492C 25003F   26191.22895833  .00036586  00000+0  13259-2 0  1915
2 62492  43.0018 317.1328 0001402 260.3686 329.0424 15.27540724    16
STARLINK-32731          
1 62493C 25003G   26191.19840278  .00035350  00000+0  12807-2 0  1911
2 62493  43.0027 317.4779 0001574 259.3535  91.0710 15.27553096    11
STARLINK-32694          
1 62494C 25003H   26191.23173611  .00041201  00000+0  14924-2 0  1911
2 62494  43.0028 316.6473 0001745 262.2014 180.5836 15.27555476    17
STARLINK-32708          
1 62495C 25003J   26191.24284722  .00047626  00000+0  17244-2 0  1914
2 62495  43.0016 317.0063 0001520 260.8830  66.1760 15.27566328    19
STARLINK-32718          
1 62496C 25003K   26191.17270833  .00018695  00000+0  67671-3 0  1919
2 62496  43.0032 316.9299 0001609 260.5557 238.3637 15.27589002    18
STARLINK-32729          
1 62497C 25003L   26191.22687500  .00043364  00000+0  15710-2 0  1916
2 62497  43.0019 316.7210 0002124 258.9290 135.8875 15.27547751    13
STARLINK-32739          
1 62498C 25003M   26191.16229167  .00019344  00000+0  70105-3 0  1912
2 62498  43.0007 317.2906 0001584 272.7247  41.6185 15.27548865    19
STARLINK-32714          
1 62499C 25003N   26191.21923611  .00036558  00000+0  13247-2 0  1913
2 62499  43.0026 317.3452 0001423 263.7254 208.4894 15.27546279    15
STARLINK-32685          
1 62500C 25003P   26191.16159722  .00012894  00000+0  46717-3 0  1910
2 62500  43.0022 317.5673 0001689 255.3888 301.9309 15.27560568    12
STARLINK-32691          
1 62501C 25003Q   26191.23104167  .00045455  00000+0  16462-2 0  1914
2 62501  43.0005 316.8844 0001620 251.1260  88.7345 15.27559054    17
STARLINK-32788          
1 62502C 25003R   26191.23868056  .00043648  00000+0  15816-2 0  1913
2 62502  43.0004 316.7940 0001562 264.7331 138.4618 15.27542116    14
STARLINK-32768          
1 62503C 25003S   26191.17409722  .00021962  00000+0  79552-3 0  1911
2 62503  43.0026 316.9313 0001760 263.1215 236.4719 15.27564910    16
STARLINK-32792          
1 62504C 25003T   26191.24076389  .00039110  00000+0  14169-2 0  1915
2 62504  43.0030 316.4374 0001808 259.0143 297.1682 15.27550201    12
STARLINK-32725          
1 62505C 25003U   26191.21923611  .00040682  00000+0  14732-2 0  1914
2 62505  43.0031 316.5631 0001633 268.9994 161.5570 15.27563680    15
STARLINK-32681          
1 62506C 25003V   26191.17548611  .00042134  00000+0  15267-2 0  1911
2 62506  43.0008 298.6874 0001819 268.5317  92.1684 15.27542982    17
STARLINK-32679          
1 62507C 25003W   26191.23034722  .00036686  00000+0  13290-2 0  1911
2 62507  43.0027 317.2912 0001672 261.7005 250.4879 15.27555334    16
STARLINK-32749          
1 62508C 25003X   26191.21784722  .00041008  00000+0  14860-2 0  1910
2 62508  43.0010 316.8243 0001744 268.4484  55.4250 15.27542231    14
STARLINK-32744          
1 62509C 25003Y   26191.22965278  .00035499  00000+0  12860-2 0  1914
2 62509  43.0020 317.2354 0001822 264.0626 286.7098 15.27554405    16
STARLINK-32701          
1 62510C 25003Z   26191.23034722  .00043900  00000+0  15906-2 0  1918
2 62510  43.0008 316.9406 0001536 258.1451  56.7443 15.27546122    16
STARLINK-11452 [DTC]    
1 62511C 25004A   26191.16020833  .00071275  00000+0  55355-3 0  1919
2 62511  43.0010  52.4916 0001809 278.4203 321.2238 15.70804339    18
STARLINK-11443 [DTC]    
1 62512C 25004B   26191.15743056  .00084575  00000+0  65681-3 0  1918
2 62512  43.0011  52.9565 0001670 265.4321 138.1319 15.70799350    19
STARLINK-11440 [DTC]    
1 62513C 25004C   26191.23590278  .00002417  00000+0  18770-4 0  1917
2 62513  43.0010  52.2577 0001918 271.6759 306.3529 15.70840033    11
STARLINK-11514 [DTC]    
1 62514C 25004D   26191.17062500  .00069991  00000+0  54354-3 0  1910
2 62514  43.0010  52.3655 0001675 275.6914  47.8318 15.70807045    16
STARLINK-11508 [DTC]    
1 62515C 25004E   26191.24006944  .00017231  00000+0  13384-3 0  1917
2 62515  43.0011  51.8578 0001683 266.3157 125.6100 15.70829368    17
STARLINK-11510 [DTC]    
1 62516C 25004F   26191.22618056  .00022543  00000+0  17510-3 0  1916
2 62516  43.0013  52.3897 0001456 276.3683 216.5560 15.70827476    11
STARLINK-11512 [DTC]    
1 62517C 25004G   26191.24493056 -.00004998  00000+0 -38820-4 0  1914
2 62517  43.0010  51.6034 0001817 258.6563 250.9766 15.70841727    10
STARLINK-11450 [DTC]    
1 62518C 25004H   26191.21993056  .00014641  00000+0  11371-3 0  1912
2 62518  43.0009  52.2023 0001547 270.5366 277.1808 15.70833433    11
STARLINK-11507 [DTC]    
1 62519C 25004J   26191.15812500  .00072818  00000+0  56555-3 0  1913
2 62519  43.0008  52.6497 0001826 277.2850 250.4514 15.70803113    12
STARLINK-11482 [DTC]    
1 62520C 25004K   26191.19631944  .00011326  00000+0  87751-4 0  1910
2 62520  43.0009  51.9702 0001742 272.0769 292.1558 15.70892187    15
STARLINK-11528 [DTC]    
1 62521C 25004L   26191.24145833  .00005333  00000+0  41420-4 0  1918
2 62521  43.0012  52.3661 0001596 277.4774 271.8945 15.70836376    13
STARLINK-11516 [DTC]    
1 62522C 25004M   26191.16993056  .00070648  00000+0  54867-3 0  1917
2 62522  43.0010  52.3526 0001647 277.2198  47.5354 15.70805642    11
STARLINK-11527 [DTC]    
1 62523C 25004N   26191.22479167  .00007505  00000+0  58276-4 0  1918
2 62523  43.0011  51.8713 0001722 275.2183  60.2704 15.70840201    12
STARLINK-32748          
1 62524C 25004P   26191.21020833 -.00009966  00000+0 -36078-3 0  1910
2 62524  42.9990 247.7659 0001198 259.9730 278.0246 15.27600044    17
STARLINK-32777          
1 62525C 25004Q   26191.18451389  .00008112  00000+0  29381-3 0  1910
2 62525  43.0028 248.4379 0001696 268.2833 268.8592 15.27575556    19
STARLINK-32741          
1 62526C 25004R   26191.22756944 -.00011948  00000+0 -43294-3 0  1913
2 62526  43.0027 244.5850 0001565 270.0735 205.1210 15.27570005    12
STARLINK-32754          
1 62527C 25004S   26191.19562500  .00007554  00000+0  27365-3 0  1910
2 62527  42.9997 248.0502 0001421 263.5328 109.1834 15.27567446    16
STARLINK-32786          
1 62528C 25004T   26191.16020833  .00025920  00000+0  93803-3 0  1913
2 62528  43.0009 247.8129 0001668 263.6771  98.0769 15.27592913    11
STARLINK-32789          
1 62529C 25004U   26191.16090278  .00014202  00000+0  51447-3 0  1913
2 62529  43.0004 248.3264 0001400 262.6795 243.5280 15.27566478    14
STARLINK-32791          
1 62530C 25004V   26191.15743056  .00017117  00000+0  62002-3 0  1910
2 62530  42.9992 248.1597 0001588 266.0666 298.8396 15.27567083    13
STARLINK-32785          
1 62531C 25004W   26191.17756944  .00009541  00000+0  34565-3 0  1918
2 62531  43.0019 248.3414 0001349 265.9558 289.5502 15.27567720    13
STARLINK-11538 [DTC]    
1 62554C 25006A   26191.20326389  .00024019  00000+0  18671-3 0  1912
2 62554  43.0004 121.0644 0001285 266.5531 130.6737 15.70807425    14
STARLINK-11534 [DTC]    
1 62555C 25006B   26191.23798611  .00074455  00000+0  57863-3 0  1912
2 62555  43.0006 120.9291 0001687 271.0976 292.6668 15.70787312    17
STARLINK-11515 [DTC]    
1 62556C 25006C   26191.21576389  .00025832  00000+0  20077-3 0  1919
2 62556  43.0005 121.6610 0001425 275.4090 282.0398 15.70809939    18
STARLINK-11478 [DTC]    
1 62557C 25006D   26191.23937500  .00062866  00000+0  48842-3 0  1916
2 62557  43.0005 121.2189 0001622 268.7768 182.6038 15.70800383    12
STARLINK-11358 [DTC]    
1 62558C 25006E   26191.24145833  .00070284  00000+0  54607-3 0  1917
2 62558  43.0005 121.1310 0001607 271.1457 222.0920 15.70796010    14
STARLINK-11517 [DTC]    
1 62559C 25006F   26191.22965278  .00050973  00000+0  39604-3 0  1912
2 62559  43.0004 121.3508 0001440 267.6610  98.6097 15.70805837    11
STARLINK-11519 [DTC]    
1 62560C 25006G   26191.24701389  .00041262  00000+0  32068-3 0  1915
2 62560  43.0002 121.5586 0001344 276.6665  62.5007 15.70803609    18
STARLINK-11451 [DTC]    
1 62561C 25006H   26191.21576389  .00053061  00000+0  41231-3 0  1915
2 62561  43.0007 121.1351 0001538 264.6678 143.2045 15.70801708    13
STARLINK-11530 [DTC]    
1 62562C 25006J   26191.19215278 -.00020033  00000+0 -15568-3 0  1919
2 62562  43.0004 121.8754 0001504 267.2099 126.4910 15.70835412    17
STARLINK-11536 [DTC]    
1 62563C 25006K   26191.17618056  .00006099  00000+0  47409-4 0  1913
2 62563  43.0007 121.4475 0001805 270.7172 242.9834 15.70817086    18
STARLINK-11540 [DTC]    
1 62564C 25006L   26191.23520833  .00045122  00000+0  35077-3 0  1913
2 62564  43.0006 121.3901 0001343 271.3785  96.2941 15.70796076    19
STARLINK-11523 [DTC]    
1 62565C 25006M   26191.22062500  .00019972  00000+0  15525-3 0  1915
2 62565  43.0004 121.5525 0001380 276.7249 338.3126 15.70810081    15
